CZ-2C R/B               
1 54039U 22132E   25349.95296791  .00024339  00000+0  35971-3 0  9990
2 54039  97.2942 346.2135 0022624  46.5023 313.8107 15.55017309177336
GSLV R/B                
1 54149U 22138AN  25350.06619140  .00001957  00000+0  17037-3 0  9993
2 54149  87.3827 194.3602 0024191  94.7339 265.6656 14.96149775171421
XRISM                   
1 57800U 23137A   25350.00640022  .00003552  00000+0  20539-3 0  9991
2 57800  31.0016 104.4514 0007727 278.2583  81.7179 15.10370058125124
ACS3                    
1 59588U 24077B   25350.29235356  .00020314  00000+0  17338-1 0  9997
2 59588  97.2647 305.1049 0076865 329.7247  29.9485 13.85671820 82637
SZ-21 MODULE            
1 66515U 25246C   25350.05447227  .00022201  00000+0  24373-3 0  9996
2 66515  41.4775 355.8239 0006112 277.4076  82.6069 15.62659653  4969
