CCSDS_OMM_VERS = 2.0
CREATION_DATE  = 
ORIGINATOR     = 

OBJECT_NAME    = CZ-2C R/B
OBJECT_ID      = 2022-132E
CENTER_NAME    = EARTH
REF_FRAME      = TEME
TIME_SYSTEM    = UTC
MEAN_ELEMENT_THEORY = SGP/SGP4

EPOCH          = 2025-12-15T22:52:16.427424
MEAN_MOTION    = 15.55017309
ECCENTRICITY   = .00226241
INCLINATION    = 97.2942
RA_OF_ASC_NODE = 346.2135
ARG_OF_PERICENTER = 46.5023
MEAN_ANOMALY   = 313.8107

EPHEMERIS_TYPE = 0
CLASSIFICATION_TYPE = U
NORAD_CAT_ID   = 54039
ELEMENT_SET_NO = 999
REV_AT_EPOCH   = 17733
BSTAR          = .35971182E-3
MEAN_MOTION_DOT = .24339E-3
MEAN_MOTION_DDOT = 0

CCSDS_OMM_VERS = 2.0
CREATION_DATE  = 
ORIGINATOR     = 

OBJECT_NAME    = GSLV R/B
OBJECT_ID      = 2022-138AN
CENTER_NAME    = EARTH
REF_FRAME      = TEME
TIME_SYSTEM    = UTC
MEAN_ELEMENT_THEORY = SGP/SGP4

EPOCH          = 2025-12-16T01:35:18.936960
MEAN_MOTION    = 14.96149775
ECCENTRICITY   = .00241919
INCLINATION    = 87.3827
RA_OF_ASC_NODE = 194.3602
ARG_OF_PERICENTER = 94.7339
MEAN_ANOMALY   = 265.6656

EPHEMERIS_TYPE = 0
CLASSIFICATION_TYPE = U
NORAD_CAT_ID   = 54149
ELEMENT_SET_NO = 999
REV_AT_EPOCH   = 17142
BSTAR          = .17037276E-3
MEAN_MOTION_DOT = .1957E-4
MEAN_MOTION_DDOT = 0

CCSDS_OMM_VERS = 2.0
CREATION_DATE  = 
ORIGINATOR     = 

OBJECT_NAME    = XRISM
OBJECT_ID      = 2023-137A
CENTER_NAME    = EARTH
REF_FRAME      = TEME
TIME_SYSTEM    = UTC
MEAN_ELEMENT_THEORY = SGP/SGP4

EPOCH          = 2025-12-16T00:09:12.979008
MEAN_MOTION    = 15.10370058
ECCENTRICITY   = .0007727
INCLINATION    = 31.0016
RA_OF_ASC_NODE = 104.4514
ARG_OF_PERICENTER = 278.2583
MEAN_ANOMALY   = 81.7179

EPHEMERIS_TYPE = 0
CLASSIFICATION_TYPE = U
NORAD_CAT_ID   = 57800
ELEMENT_SET_NO = 999
REV_AT_EPOCH   = 12512
BSTAR          = .20539346E-3
MEAN_MOTION_DOT = .3552E-4
MEAN_MOTION_DDOT = 0

CCSDS_OMM_VERS = 2.0
CREATION_DATE  = 
ORIGINATOR     = 

OBJECT_NAME    = ACS3
OBJECT_ID      = 2024-077B
CENTER_NAME    = EARTH
REF_FRAME      = TEME
TIME_SYSTEM    = UTC
MEAN_ELEMENT_THEORY = SGP/SGP4

EPOCH          = 2025-12-16T07:00:59.347584
MEAN_MOTION    = 13.85671820
ECCENTRICITY   = .00768656
INCLINATION    = 97.2647
RA_OF_ASC_NODE = 305.1049
ARG_OF_PERICENTER = 329.7247
MEAN_ANOMALY   = 29.9485

EPHEMERIS_TYPE = 0
CLASSIFICATION_TYPE = U
NORAD_CAT_ID   = 59588
ELEMENT_SET_NO = 999
REV_AT_EPOCH   = 8263
BSTAR          = .17338006E-1
MEAN_MOTION_DOT = .20314E-3
MEAN_MOTION_DDOT = 0

CCSDS_OMM_VERS = 2.0
CREATION_DATE  = 
ORIGINATOR     = 

OBJECT_NAME    = SZ-21 MODULE
OBJECT_ID      = 2025-246C
CENTER_NAME    = EARTH
REF_FRAME      = TEME
TIME_SYSTEM    = UTC
MEAN_ELEMENT_THEORY = SGP/SGP4

EPOCH          = 2025-12-16T01:18:26.404128
MEAN_MOTION    = 15.62659653
ECCENTRICITY   = .00061121
INCLINATION    = 41.4775
RA_OF_ASC_NODE = 355.8239
ARG_OF_PERICENTER = 277.4076
MEAN_ANOMALY   = 82.6069

EPHEMERIS_TYPE = 0
CLASSIFICATION_TYPE = U
NORAD_CAT_ID   = 66515
ELEMENT_SET_NO = 999
REV_AT_EPOCH   = 496
BSTAR          = .24372704E-3
MEAN_MOTION_DOT = .22201E-3
MEAN_MOTION_DDOT = 0

